CCSDS_OMM_VERS = 2.0
CREATION_DATE  = 
ORIGINATOR     = 

OBJECT_NAME    = TIANQI-39
OBJECT_ID      = 2026-010C
CENTER_NAME    = EARTH
REF_FRAME      = TEME
TIME_SYSTEM    = UTC
MEAN_ELEMENT_THEORY = SGP/SGP4

EPOCH          = 2026-01-27T04:33:51.773184
MEAN_MOTION    = 14.14526304
ECCENTRICITY   = .00108017
INCLINATION    = 44.9845
RA_OF_ASC_NODE = 351.7145
ARG_OF_PERICENTER = 8.1268
MEAN_ANOMALY   = 351.9744

EPHEMERIS_TYPE = 0
CLASSIFICATION_TYPE = U
NORAD_CAT_ID   = 67478
ELEMENT_SET_NO = 999
REV_AT_EPOCH   = 161
BSTAR          = .20135349E-3
MEAN_MOTION_DOT = .255E-5
MEAN_MOTION_DDOT = 0

CCSDS_OMM_VERS = 2.0
CREATION_DATE  = 
ORIGINATOR     = 

OBJECT_NAME    = TIANQI-40
OBJECT_ID      = 2026-010D
CENTER_NAME    = EARTH
REF_FRAME      = TEME
TIME_SYSTEM    = UTC
MEAN_ELEMENT_THEORY = SGP/SGP4

EPOCH          = 2026-01-27T06:15:25.081344
MEAN_MOTION    = 14.14538960
ECCENTRICITY   = .0011549
INCLINATION    = 44.9852
RA_OF_ASC_NODE = 351.3920
ARG_OF_PERICENTER = 4.6560
MEAN_ANOMALY   = 355.4384

EPHEMERIS_TYPE = 0
CLASSIFICATION_TYPE = U
NORAD_CAT_ID   = 67479
ELEMENT_SET_NO = 999
REV_AT_EPOCH   = 162
BSTAR          = .22376E-3
MEAN_MOTION_DOT = .299E-5
MEAN_MOTION_DDOT = 0

CCSDS_OMM_VERS = 2.0
CREATION_DATE  = 
ORIGINATOR     = 

OBJECT_NAME    = TRANSPORTER-15DT
OBJECT_ID      = 2025-276DT
CENTER_NAME    = EARTH
REF_FRAME      = TEME
TIME_SYSTEM    = UTC
MEAN_ELEMENT_THEORY = SGP/SGP4

EPOCH          = 2026-01-27T15:18:43.022880
MEAN_MOTION    = 14.97650943
ECCENTRICITY   = .00103135
INCLINATION    = 97.5428
RA_OF_ASC_NODE = 103.1783
ARG_OF_PERICENTER = 240.2537
MEAN_ANOMALY   = 119.7660

EPHEMERIS_TYPE = 0
CLASSIFICATION_TYPE = U
NORAD_CAT_ID   = 67483
ELEMENT_SET_NO = 999
REV_AT_EPOCH   = 157
BSTAR          = .17231798E-3
MEAN_MOTION_DOT = .1961E-4
MEAN_MOTION_DDOT = 0

CCSDS_OMM_VERS = 2.0
CREATION_DATE  = 
ORIGINATOR     = 

OBJECT_NAME    = STARLINK-36551
OBJECT_ID      = 2026-012A
CENTER_NAME    = EARTH
REF_FRAME      = TEME
TIME_SYSTEM    = UTC
MEAN_ELEMENT_THEORY = SGP/SGP4

EPOCH          = 2026-01-19T00:25:32.539872
MEAN_MOTION    = 16.05267929
ECCENTRICITY   = .00077
INCLINATION    = 43.0100
RA_OF_ASC_NODE = 248.3700
ARG_OF_PERICENTER = 319.9700
MEAN_ANOMALY   = 13.3500

EPHEMERIS_TYPE = 0
CLASSIFICATION_TYPE = U
NORAD_CAT_ID   = 67493
ELEMENT_SET_NO = 999
REV_AT_EPOCH   = 1
BSTAR          = 0
MEAN_MOTION_DOT = -.2725E-4
MEAN_MOTION_DDOT = .8614162E-5

CCSDS_OMM_VERS = 2.0
CREATION_DATE  = 
ORIGINATOR     = 

OBJECT_NAME    = STARLINK-36396
OBJECT_ID      = 2026-012B
CENTER_NAME    = EARTH
REF_FRAME      = TEME
TIME_SYSTEM    = UTC
MEAN_ELEMENT_THEORY = SGP/SGP4

EPOCH          = 2026-01-19T00:25:32.539872
MEAN_MOTION    = 16.05267929
ECCENTRICITY   = .00077
INCLINATION    = 43.0100
RA_OF_ASC_NODE = 248.3700
ARG_OF_PERICENTER = 319.9700
MEAN_ANOMALY   = 13.3500

EPHEMERIS_TYPE = 0
CLASSIFICATION_TYPE = U
NORAD_CAT_ID   = 67494
ELEMENT_SET_NO = 999
REV_AT_EPOCH   = 1
BSTAR          = 0
MEAN_MOTION_DOT = -.2725E-4
MEAN_MOTION_DDOT = .8614162E-5

CCSDS_OMM_VERS = 2.0
CREATION_DATE  = 
ORIGINATOR     = 

OBJECT_NAME    = STARLINK-36550
OBJECT_ID      = 2026-012C
CENTER_NAME    = EARTH
REF_FRAME      = TEME
TIME_SYSTEM    = UTC
MEAN_ELEMENT_THEORY = SGP/SGP4

EPOCH          = 2026-01-19T00:25:32.539872
MEAN_MOTION    = 16.05267929
ECCENTRICITY   = .00077
INCLINATION    = 43.0100
RA_OF_ASC_NODE = 248.3700
ARG_OF_PERICENTER = 319.9700
MEAN_ANOMALY   = 13.3500

EPHEMERIS_TYPE = 0
CLASSIFICATION_TYPE = U
NORAD_CAT_ID   = 67495
ELEMENT_SET_NO = 999
REV_AT_EPOCH   = 1
BSTAR          = 0
MEAN_MOTION_DOT = -.2725E-4
MEAN_MOTION_DDOT = .8614162E-5

CCSDS_OMM_VERS = 2.0
CREATION_DATE  = 
ORIGINATOR     = 

OBJECT_NAME    = STARLINK-36534
OBJECT_ID      = 2026-012D
CENTER_NAME    = EARTH
REF_FRAME      = TEME
TIME_SYSTEM    = UTC
MEAN_ELEMENT_THEORY = SGP/SGP4

EPOCH          = 2026-01-19T00:25:32.539872
MEAN_MOTION    = 16.05267929
ECCENTRICITY   = .00077
INCLINATION    = 43.0100
RA_OF_ASC_NODE = 248.3700
ARG_OF_PERICENTER = 319.9700
MEAN_ANOMALY   = 13.3500

EPHEMERIS_TYPE = 0
CLASSIFICATION_TYPE = U
NORAD_CAT_ID   = 67496
ELEMENT_SET_NO = 999
REV_AT_EPOCH   = 1
BSTAR          = 0
MEAN_MOTION_DOT = -.2725E-4
MEAN_MOTION_DDOT = .8614162E-5

CCSDS_OMM_VERS = 2.0
CREATION_DATE  = 
ORIGINATOR     = 

OBJECT_NAME    = STARLINK-36555
OBJECT_ID      = 2026-012E
CENTER_NAME    = EARTH
REF_FRAME      = TEME
TIME_SYSTEM    = UTC
MEAN_ELEMENT_THEORY = SGP/SGP4

EPOCH          = 2026-01-19T00:25:32.539872
MEAN_MOTION    = 16.05267929
ECCENTRICITY   = .00077
INCLINATION    = 43.0100
RA_OF_ASC_NODE = 248.3700
ARG_OF_PERICENTER = 319.9700
MEAN_ANOMALY   = 13.3500

EPHEMERIS_TYPE = 0
CLASSIFICATION_TYPE = U
NORAD_CAT_ID   = 67497
ELEMENT_SET_NO = 999
REV_AT_EPOCH   = 1
BSTAR          = 0
MEAN_MOTION_DOT = -.2725E-4
MEAN_MOTION_DDOT = .8614162E-5

CCSDS_OMM_VERS = 2.0
CREATION_DATE  = 
ORIGINATOR     = 

OBJECT_NAME    = STARLINK-36081
OBJECT_ID      = 2026-012F
CENTER_NAME    = EARTH
REF_FRAME      = TEME
TIME_SYSTEM    = UTC
MEAN_ELEMENT_THEORY = SGP/SGP4

EPOCH          = 2026-01-19T00:25:32.539872
MEAN_MOTION    = 16.05267929
ECCENTRICITY   = .00077
INCLINATION    = 43.0100
RA_OF_ASC_NODE = 248.3700
ARG_OF_PERICENTER = 319.9700
MEAN_ANOMALY   = 13.3500

EPHEMERIS_TYPE = 0
CLASSIFICATION_TYPE = U
NORAD_CAT_ID   = 67498
ELEMENT_SET_NO = 999
REV_AT_EPOCH   = 1
BSTAR          = 0
MEAN_MOTION_DOT = -.2725E-4
MEAN_MOTION_DDOT = .8614162E-5

CCSDS_OMM_VERS = 2.0
CREATION_DATE  = 
ORIGINATOR     = 

OBJECT_NAME    = STARLINK-36558
OBJECT_ID      = 2026-012G
CENTER_NAME    = EARTH
REF_FRAME      = TEME
TIME_SYSTEM    = UTC
MEAN_ELEMENT_THEORY = SGP/SGP4

EPOCH          = 2026-01-19T00:25:32.539872
MEAN_MOTION    = 16.05267929
ECCENTRICITY   = .00077
INCLINATION    = 43.0100
RA_OF_ASC_NODE = 248.3700
ARG_OF_PERICENTER = 319.9700
MEAN_ANOMALY   = 13.3500

EPHEMERIS_TYPE = 0
CLASSIFICATION_TYPE = U
NORAD_CAT_ID   = 67499
ELEMENT_SET_NO = 999
REV_AT_EPOCH   = 1
BSTAR          = 0
MEAN_MOTION_DOT = -.2725E-4
MEAN_MOTION_DDOT = .8614162E-5

CCSDS_OMM_VERS = 2.0
CREATION_DATE  = 
ORIGINATOR     = 

OBJECT_NAME    = STARLINK-36557
OBJECT_ID      = 2026-012H
CENTER_NAME    = EARTH
REF_FRAME      = TEME
TIME_SYSTEM    = UTC
MEAN_ELEMENT_THEORY = SGP/SGP4

EPOCH          = 2026-01-19T00:25:32.539872
MEAN_MOTION    = 16.05267929
ECCENTRICITY   = .00077
INCLINATION    = 43.0100
RA_OF_ASC_NODE = 248.3700
ARG_OF_PERICENTER = 319.9700
MEAN_ANOMALY   = 13.3500

EPHEMERIS_TYPE = 0
CLASSIFICATION_TYPE = U
NORAD_CAT_ID   = 67500
ELEMENT_SET_NO = 999
REV_AT_EPOCH   = 1
BSTAR          = 0
MEAN_MOTION_DOT = -.2725E-4
MEAN_MOTION_DDOT = .8614162E-5

CCSDS_OMM_VERS = 2.0
CREATION_DATE  = 
ORIGINATOR     = 

OBJECT_NAME    = STARLINK-36433
OBJECT_ID      = 2026-012J
CENTER_NAME    = EARTH
REF_FRAME      = TEME
TIME_SYSTEM    = UTC
MEAN_ELEMENT_THEORY = SGP/SGP4

EPOCH          = 2026-01-19T00:25:32.539872
MEAN_MOTION    = 16.05267929
ECCENTRICITY   = .00077
INCLINATION    = 43.0100
RA_OF_ASC_NODE = 248.3700
ARG_OF_PERICENTER = 319.9700
MEAN_ANOMALY   = 13.3500

EPHEMERIS_TYPE = 0
CLASSIFICATION_TYPE = U
NORAD_CAT_ID   = 67501
ELEMENT_SET_NO = 999
REV_AT_EPOCH   = 1
BSTAR          = 0
MEAN_MOTION_DOT = -.2725E-4
MEAN_MOTION_DDOT = .8614162E-5

